GLOBALSTAR M024 [-]     
1 25883U 99043A   24107.77862359 -.00000051  00000+0  47800-3 0  9990
2 25883  52.0014 262.7396 0002274 122.4019 346.2836 11.10161202 67504
GLOBALSTAR M027 [-]     
1 25884U 99043B   24107.91032119 -.00000068  00000+0 -14832-3 0  9998
2 25884  52.0233 328.3515 0021724  24.6284 335.5542 11.04367969 94144
GLOBALSTAR M053 [-]     
1 25886U 99043D   24107.73134528 -.00000064  00000+0  14033-3 0  9995
2 25886  51.9964  91.0444 0003385  75.5627  95.8302 11.27654439 71331
GLOBALSTAR M050 [-]     
1 25908U 99049B   24107.54688682 -.00000114  00000+0 -28756-3 0  9994
2 25908  51.9980 207.9439 0008774 258.5647 115.0293 12.07431905 96654
GLOBALSTAR M033 [-]     
1 25909U 99049C   24107.68085455 -.00000112  00000+0 -19344-3 0  9990
2 25909  51.9889 108.8683 0011743 113.0854 247.1233 12.20269681483676
GLOBALSTAR M055 [-]     
1 25910U 99049D   24107.91235963 -.00000070  00000+0  20403-3 0  9999
2 25910  51.9993 139.7096 0006845 326.6774  33.3646 12.29399104115853
